{"type": "FeatureCollection", "features": [{"type": "Feature", "properties": {"segment_id": "RSK-001", "start_chainage_m": 0, "length_m": 100}, "geometry": {"type": "LineString", "coordinates": [[76.282, 9.965], [76.28274221187776, 9.9672]]}}, {"type": "Feature", "properties": {"segment_id": "RSK-002", "start_chainage_m": 100, "length_m": 100}, "geometry": {"type": "LineString", "coordinates": [[76.28274221187776, 9.9672], [76.28343827661581, 9.9694]]}}, {"type": "Feature", "properties": {"segment_id": "RSK-003", "start_chainage_m": 200, "length_m": 100}, "geometry": {"type": "LineString", "coordinates": [[76.28343827661581, 9.9694], [76.28404491628007, 9.9716]]}}, {"type": "Feature", "properties": {"segment_id": "RSK-004", "start_chainage_m": 300, "length_m": 100}, "geometry": {"type": "LineString", "coordinates": [[76.28404491628007, 9.9716], [76.28452441295443, 9.9738]]}}, {"type": "Feature", "properties": {"segment_id": "RSK-005", "start_chainage_m": 400, "length_m": 100}, "geometry": {"type": "LineString", "coordinates": [[76.28452441295443, 9.9738], [76.28484695385806, 9.975999999999999]]}}, {"type": "Feature", "properties": {"segment_id": "RSK-006", "start_chainage_m": 500, "length_m": 100}, "geometry": {"type": "LineString", "coordinates": [[76.28484695385806, 9.975999999999999], [76.28499248495982, 9.9782]]}}, {"type": "Feature", "properties": {"segment_id": "RSK-007", "start_chainage_m": 600, "length_m": 100}, "geometry": {"type": "LineString", "coordinates": [[76.28499248495982, 9.9782], [76.28495195784062, 9.9804]]}}, {"type": "Feature", "properties": {"segment_id": "RSK-008", "start_chainage_m": 700, "length_m": 100}, "geometry": {"type": "LineString", "coordinates": [[76.28495195784062, 9.9804], [76.28472789228047, 9.9826]]}}, {"type": "Feature", "properties": {"segment_id": "RSK-009", "start_chainage_m": 800, "length_m": 100}, "geometry": {"type": "LineString", "coordinates": [[76.28472789228047, 9.9826], [76.28433421959066, 9.9848]]}}, {"type": "Feature", "properties": {"segment_id": "RSK-010", "start_chainage_m": 900, "length_m": 100}, "geometry": {"type": "LineString", "coordinates": [[76.28433421959066, 9.9848], [76.28379541643231, 9.987]]}}, {"type": "Feature", "properties": {"segment_id": "RSK-011", "start_chainage_m": 1000, "length_m": 100}, "geometry": {"type": "LineString", "coordinates": [[76.28379541643231, 9.987], [76.28314498297615, 9.9892]]}}, {"type": "Feature", "properties": {"segment_id": "RSK-012", "start_chainage_m": 1100, "length_m": 100}, "geometry": {"type": "LineString", "coordinates": [[76.28314498297615, 9.9892], [76.28242336002418, 9.9914]]}}, {"type": "Feature", "properties": {"segment_id": "RSK-013", "start_chainage_m": 1200, "length_m": 100}, "geometry": {"type": "LineString", "coordinates": [[76.28242336002418, 9.9914], [76.2816754145964, 9.9936]]}}, {"type": "Feature", "properties": {"segment_id": "RSK-014", "start_chainage_m": 1300, "length_m": 100}, "geometry": {"type": "LineString", "coordinates": [[76.2816754145964, 9.9936], [76.28094765031693, 9.9958]]}}, {"type": "Feature", "properties": {"segment_id": "RSK-015", "start_chainage_m": 1400, "length_m": 100}, "geometry": {"type": "LineString", "coordinates": [[76.28094765031693, 9.9958], [76.28028531604377, 9.998]]}}, {"type": "Feature", "properties": {"segment_id": "RSK-016", "start_chainage_m": 1500, "length_m": 100}, "geometry": {"type": "LineString", "coordinates": [[76.28028531604377, 9.998], [76.27972959251407, 10.0002]]}}, {"type": "Feature", "properties": {"segment_id": "RSK-017", "start_chainage_m": 1600, "length_m": 100}, "geometry": {"type": "LineString", "coordinates": [[76.27972959251407, 10.0002], [76.27931503192531, 10.0024]]}}, {"type": "Feature", "properties": {"segment_id": "RSK-018", "start_chainage_m": 1700, "length_m": 100}, "geometry": {"type": "LineString", "coordinates": [[76.27931503192531, 10.0024], [76.279067409647, 10.0046]]}}, {"type": "Feature", "properties": {"segment_id": "RSK-019", "start_chainage_m": 1800, "length_m": 100}, "geometry": {"type": "LineString", "coordinates": [[76.279067409647, 10.0046], [76.27900212163307, 10.0068]]}}, {"type": "Feature", "properties": {"segment_id": "RSK-020", "start_chainage_m": 1900, "length_m": 100}, "geometry": {"type": "LineString", "coordinates": [[76.27900212163307, 10.0068], [76.279123227176, 10.009]]}}, {"type": "Feature", "properties": {"segment_id": "RSK-021", "start_chainage_m": 2000, "length_m": 100}, "geometry": {"type": "LineString", "coordinates": [[76.279123227176, 10.009], [76.27942319651972, 10.0112]]}}, {"type": "Feature", "properties": {"segment_id": "RSK-022", "start_chainage_m": 2100, "length_m": 100}, "geometry": {"type": "LineString", "coordinates": [[76.27942319651972, 10.0112], [76.27988337902329, 10.0134]]}}, {"type": "Feature", "properties": {"segment_id": "RSK-023", "start_chainage_m": 2200, "length_m": 100}, "geometry": {"type": "LineString", "coordinates": [[76.27988337902329, 10.0134], [76.2804751627675, 10.0156]]}}, {"type": "Feature", "properties": {"segment_id": "RSK-024", "start_chainage_m": 2300, "length_m": 100}, "geometry": {"type": "LineString", "coordinates": [[76.2804751627675, 10.0156], [76.2811617535054, 10.0178]]}}]}